[{"OBJECT_NAME":"STARLINK-31125","OBJECT_ID":"2023-211M","EPOCH":"2026-03-09T02:26:12.497856","MEAN_MOTION":15.27579104,"ECCENTRICITY":6.876e-5,"INCLINATION":43.0021,"RA_OF_ASC_NODE":88.6818,"ARG_OF_PERICENTER":254.9458,"MEAN_ANOMALY":105.1318,"EPHEMERIS_TYPE":0,"CLASSIFICATION_TYPE":"U","NORAD_CAT_ID":58678,"ELEMENT_SET_NO":999,"REV_AT_EPOCH":12354,"BSTAR":6.663399e-6,"MEAN_MOTION_DOT":-7.8e-7,"MEAN_MOTION_DDOT":0},{"OBJECT_NAME":"OBJECT D","OBJECT_ID":"2025-197D","EPOCH":"2026-03-09T23:30:56.303712","MEAN_MOTION":15.25287442,"ECCENTRICITY":0.00144425,"INCLINATION":97.4091,"RA_OF_ASC_NODE":257.3677,"ARG_OF_PERICENTER":3.398,"MEAN_ANOMALY":356.7353,"EPHEMERIS_TYPE":0,"CLASSIFICATION_TYPE":"U","NORAD_CAT_ID":65491,"ELEMENT_SET_NO":999,"REV_AT_EPOCH":2822,"BSTAR":0.00037200129,"MEAN_MOTION_DOT":9.321e-5,"MEAN_MOTION_DDOT":0}]
